{
  "type": "FeatureCollection",
  "features": [
    {
      "type": "Feature",
      "properties": {
        "norad_id": 34141,
        "name": "COSMOS 2251 DEB",
        "group": "cosmos-2251-debris",
        "lat": -65.30656671084375,
        "lon": -106.69955098276834,
        "alt_km": 756.3160499347105,
        "timestamp": "2025-12-09T14:52:26.556284+00:00",
        "meta_object_name": "COSMOS 2251 DEB",
        "meta_object_id": "1993-036LN",
        "meta_epoch": "2025-12-09T05:43:21.495936",
        "meta_mean_motion": 14.4918046,
        "meta_eccentricity": 0.0047664,
        "meta_inclination": 74.0109,
        "meta_ra_of_asc_node": 35.4385,
        "meta_arg_of_pericenter": 122.8828,
        "meta_mean_anomaly": 299.0857,
        "meta_ephemeris_type": 0,
        "meta_classification_type": "U",
        "meta_norad_cat_id": 34141,
        "meta_element_set_no": 999,
        "meta_rev_at_epoch": 87643,
        "meta_bstar": 0.0021169861,
        "meta_mean_motion_dot": 8.158e-05,
        "meta_mean_motion_ddot": 0,
        "tle_line1": "1 34141U 93036LN  25343.23844324  .00008158  00000+0  21170-2 0  9995",
        "tle_line2": "2 34141  74.0109  35.4385 0047664 122.8828 299.0857 14.49180460876437"
      },
      "geometry": {
        "type": "Point",
        "coordinates": [
          -106.69955098276834,
          -65.30656671084375
        ]
      }
    },
    {
      "type": "Feature",
      "properties": {
        "norad_id": 34270,
        "name": "COSMOS 2251 DEB",
        "group": "cosmos-2251-debris",
        "lat": 26.342108480376204,
        "lon": -39.198794016929675,
        "alt_km": 668.692080707533,
        "timestamp": "2025-12-09T14:52:26.556294+00:00",
        "meta_object_name": "COSMOS 2251 DEB",
        "meta_object_id": "1993-036LQ",
        "meta_epoch": "2025-12-09T00:00:00.085536",
        "meta_mean_motion": 14.65118446,
        "meta_eccentricity": 0.00477596,
        "meta_inclination": 74.0117,
        "meta_ra_of_asc_node": 313.8332,
        "meta_arg_of_pericenter": 107.7355,
        "meta_mean_anomaly": 252.9035,
        "meta_ephemeris_type": 0,
        "meta_classification_type": "U",
        "meta_norad_cat_id": 34270,
        "meta_element_set_no": 999,
        "meta_rev_at_epoch": 89041,
        "meta_bstar": 0.00067062077,
        "meta_mean_motion_dot": 3.634e-05,
        "meta_mean_motion_ddot": 0,
        "tle_line1": "1 34270U 93036LQ  25343.00000099  .00003634  00000+0  67062-3 0  9991",
        "tle_line2": "2 34270  74.0117 313.8332 0047759 107.7355 252.9035 14.65118446890419"
      },
      "geometry": {
        "type": "Point",
        "coordinates": [
          -39.198794016929675,
          26.342108480376204
        ]
      }
    },
    {
      "type": "Feature",
      "properties": {
        "norad_id": 34271,
        "name": "COSMOS 2251 DEB",
        "group": "cosmos-2251-debris",
        "lat": -73.91338704737112,
        "lon": 121.82563832266904,
        "alt_km": 652.7141811072324,
        "timestamp": "2025-12-09T14:52:26.556305+00:00",
        "meta_object_name": "COSMOS 2251 DEB",
        "meta_object_id": "1993-036LR",
        "meta_epoch": "2025-12-09T07:39:50.152608",
        "meta_mean_motion": 14.70637855,
        "meta_eccentricity": 0.00192407,
        "meta_inclination": 74.0197,
        "meta_ra_of_asc_node": 205.9728,
        "meta_arg_of_pericenter": 260.5156,
        "meta_mean_anomaly": 221.3581,
        "meta_ephemeris_type": 0,
        "meta_classification_type": "U",
        "meta_norad_cat_id": 34271,
        "meta_element_set_no": 999,
        "meta_rev_at_epoch": 88184,
        "meta_bstar": 0.0023856658,
        "meta_mean_motion_dot": 0.00014558,
        "meta_mean_motion_ddot": 0,
        "tle_line1": "1 34271U 93036LR  25343.31933047  .00014558  00000+0  23857-2 0  9994",
        "tle_line2": "2 34271  74.0197 205.9728 0019240 260.5156 221.3581 14.70637855881848"
      },
      "geometry": {
        "type": "Point",
        "coordinates": [
          121.82563832266904,
          -73.91338704737112
        ]
      }
    },
    {
      "type": "Feature",
      "properties": {
        "norad_id": 34273,
        "name": "COSMOS 2251 DEB",
        "group": "cosmos-2251-debris",
        "lat": 36.12117545393666,
        "lon": 105.45131091643609,
        "alt_km": 696.6110696529531,
        "timestamp": "2025-12-09T14:52:26.556316+00:00",
        "meta_object_name": "COSMOS 2251 DEB",
        "meta_object_id": "1993-036LT",
        "meta_epoch": "2025-12-09T00:27:10.054368",
        "meta_mean_motion": 14.61165961,
        "meta_eccentricity": 0.00142546,
        "meta_inclination": 74.036,
        "meta_ra_of_asc_node": 94.5415,
        "meta_arg_of_pericenter": 220.1005,
        "meta_mean_anomaly": 258.3189,
        "meta_ephemeris_type": 0,
        "meta_classification_type": "U",
        "meta_norad_cat_id": 34273,
        "meta_element_set_no": 999,
        "meta_rev_at_epoch": 88567,
        "meta_bstar": 0.0013233696,
        "meta_mean_motion_dot": 6.501e-05,
        "meta_mean_motion_ddot": 0,
        "tle_line1": "1 34273U 93036LT  25343.01886637  .00006501  00000+0  13234-2 0  9992",
        "tle_line2": "2 34273  74.0360  94.5415 0014254 220.1005 258.3189 14.61165961885675"
      },
      "geometry": {
        "type": "Point",
        "coordinates": [
          105.45131091643609,
          36.12117545393666
        ]
      }
    },
    {
      "type": "Feature",
      "properties": {
        "norad_id": 34274,
        "name": "COSMOS 2251 DEB",
        "group": "cosmos-2251-debris",
        "lat": 71.2305747412713,
        "lon": 132.1529366474264,
        "alt_km": 683.5232770788743,
        "timestamp": "2025-12-09T14:52:26.556326+00:00",
        "meta_object_name": "COSMOS 2251 DEB",
        "meta_object_id": "1993-036LU",
        "meta_epoch": "2025-12-08T17:46:00.338016",
        "meta_mean_motion": 14.64704311,
        "meta_eccentricity": 0.00222691,
        "meta_inclination": 74.0048,
        "meta_ra_of_asc_node": 76.273,
        "meta_arg_of_pericenter": 226.5258,
        "meta_mean_anomaly": 258.1991,
        "meta_ephemeris_type": 0,
        "meta_classification_type": "U",
        "meta_norad_cat_id": 34274,
        "meta_element_set_no": 999,
        "meta_rev_at_epoch": 88617,
        "meta_bstar": 0.0018467108,
        "meta_mean_motion_dot": 9.85e-05,
        "meta_mean_motion_ddot": 0,
        "tle_line1": "1 34274U 93036LU  25342.74028169  .00009850  00000+0  18467-2 0  9993",
        "tle_line2": "2 34274  74.0048  76.2730 0022269 226.5258 258.1991 14.64704311886177"
      },
      "geometry": {
        "type": "Point",
        "coordinates": [
          132.1529366474264,
          71.2305747412713
        ]
      }
    },
    {
      "type": "Feature",
      "properties": {
        "norad_id": 34276,
        "name": "COSMOS 2251 DEB",
        "group": "cosmos-2251-debris",
        "lat": 69.91462533643035,
        "lon": -140.3276539221168,
        "alt_km": 706.5861989319692,
        "timestamp": "2025-12-09T14:52:26.556336+00:00",
        "meta_object_name": "COSMOS 2251 DEB",
        "meta_object_id": "1993-036LW",
        "meta_epoch": "2025-12-09T08:05:55.261824",
        "meta_mean_motion": 14.57189795,
        "meta_eccentricity": 0.00226402,
        "meta_inclination": 74.0237,
        "meta_ra_of_asc_node": 91.7892,
        "meta_arg_of_pericenter": 238.6422,
        "meta_mean_anomaly": 183.4961,
        "meta_ephemeris_type": 0,
        "meta_classification_type": "U",
        "meta_norad_cat_id": 34276,
        "meta_element_set_no": 999,
        "meta_rev_at_epoch": 88543,
        "meta_bstar": 0.0013417204,
        "meta_mean_motion_dot": 6.054e-05,
        "meta_mean_motion_ddot": 0,
        "tle_line1": "1 34276U 93036LW  25343.33744516  .00006054  00000+0  13417-2 0  9995",
        "tle_line2": "2 34276  74.0237  91.7892 0022640 238.6422 183.4961 14.57189795885430"
      },
      "geometry": {
        "type": "Point",
        "coordinates": [
          -140.3276539221168,
          69.91462533643035
        ]
      }
    },
    {
      "type": "Feature",
      "properties": {
        "norad_id": 34297,
        "name": "COSMOS 2251 DEB",
        "group": "cosmos-2251-debris",
        "lat": -13.926611881827816,
        "lon": -74.10536543908346,
        "alt_km": 762.0008588106812,
        "timestamp": "2025-12-09T14:52:26.556347+00:00",
        "meta_object_name": "COSMOS 2251 DEB",
        "meta_object_id": "1993-036MT",
        "meta_epoch": "2025-12-09T07:07:55.762752",
        "meta_mean_motion": 14.36624678,
        "meta_eccentricity": 0.00171319,
        "meta_inclination": 74.0485,
        "meta_ra_of_asc_node": 290.5537,
        "meta_arg_of_pericenter": 359.887,
        "meta_mean_anomaly": 118.1203,
        "meta_ephemeris_type": 0,
        "meta_classification_type": "U",
        "meta_norad_cat_id": 34297,
        "meta_element_set_no": 999,
        "meta_rev_at_epoch": 88015,
        "meta_bstar": 0.00028013936,
        "meta_mean_motion_dot": 7.99e-06,
        "meta_mean_motion_ddot": 0,
        "tle_line1": "1 34297U 93036MT  25343.29717318  .00000799  00000+0  28014-3 0  9993",
        "tle_line2": "2 34297  74.0485 290.5537 0017131 359.8870 118.1203 14.36624678880154"
      },
      "geometry": {
        "type": "Point",
        "coordinates": [
          -74.10536543908346,
          -13.926611881827816
        ]
      }
    }
  ]
}